[{"OBJECT_NAME":"STARLINK-33974","OBJECT_ID":"2025-099C","EPOCH":"2026-03-09T07:25:40.708416","MEAN_MOTION":15.27587074,"ECCENTRICITY":0.00018341,"INCLINATION":42.9999,"RA_OF_ASC_NODE":178.7605,"ARG_OF_PERICENTER":275.0177,"MEAN_ANOMALY":85.0465,"EPHEMERIS_TYPE":0,"CLASSIFICATION_TYPE":"U","NORAD_CAT_ID":63954,"ELEMENT_SET_NO":999,"REV_AT_EPOCH":4727,"BSTAR":0.0014137065,"MEAN_MOTION_DOT":0.00038854,"MEAN_MOTION_DDOT":0},{"OBJECT_NAME":"ELECTRON KICK STAGE R\/B","OBJECT_ID":"2024-047B","EPOCH":"2026-03-09T21:11:54.433824","MEAN_MOTION":15.27307897,"ECCENTRICITY":0.00092426,"INCLINATION":97.6338,"RA_OF_ASC_NODE":46.9382,"ARG_OF_PERICENTER":20.6031,"MEAN_ANOMALY":339.5579,"EPHEMERIS_TYPE":0,"CLASSIFICATION_TYPE":"U","NORAD_CAT_ID":59225,"ELEMENT_SET_NO":999,"REV_AT_EPOCH":10999,"BSTAR":0.00091229405,"MEAN_MOTION_DOT":0.00024409,"MEAN_MOTION_DDOT":0}]
